{
  "norad_id": 68549,
  "name": "STARLINK-36204",
  "history": [
    {
      "epoch": "2026-04-09T20:00:01.999008Z",
      "apogee_km": 275.82500304653604,
      "perigee_km": 274.84960371366105,
      "latitude_deg": -42.6180644952628,
      "longitude_deg": 47.468535480808555,
      "height_km": 289.74280715827405,
      "semi_major_axis_km": 6653.474303380099,
      "eccentricity": 7.33e-05,
      "inclination_deg": 53.1588,
      "raan_deg": 228.8256,
      "arg_perigee_deg": 53.511,
      "mean_anomaly_deg": 249.0612,
      "mean_motion_rev_day": 15.99668659
    }
  ]
}