STARLINK-36204          
1 68549U 26070H   26099.83335647 -.00900947  27415-3 -17439-2 0  9991
2 68549  53.1588 228.8256 0000733  53.5110 249.0612 15.99668659  2331
